{"fetched_at":"2026-04-27T06:31:09Z","count":13942,"tles":[{"name":"AEHF-4 (USA 288)","line1":"1 43651U 18079A   26116.55188436 -.00000288  00000+0  00000+0 0  9997","line2":"2 43651   1.4251 359.4620 0063422 357.9806 348.1401  1.00266428 27771","category":"Military"},{"name":"STARLINK-5413","line1":"1 54808U 22175BC  26116.54786159 -.00001155  00000+0 -54503-4 0  9997","line2":"2 54808  53.2154 159.4480 0000995  73.6352 286.4749 15.08838675187565","category":"Starlink"},{"name":"STARLINK-32941","line1":"1 63119U 25039R   26116.32735449  .00005976  00000+0  22655-3 0  9991","line2":"2 63119  43.0021  92.3735 0001733 263.0912  96.9743 15.27576240 65488","category":"Starlink"},{"name":"MAGNARO-II PISCIS","line1":"1 68798U 26088G   26113.82334568  .00001591  00000+0  10611-3 0  9991","line2":"2 68798  97.4999 264.4888 0017891 266.9056  93.0125 15.08353756   101","category":"Other"},{"name":"STARLINK-34360","line1":"1 64304U 25123P   26116.60906942  .00001913  00000+0  16802-3 0  9995","line2":"2 64304  70.0024  73.7411 0002184 267.0510  93.0399 14.98341263 48793","category":"Starlink"},{"name":"INTELSAT 904 (IS-904)","line1":"1 27380U 02007A   26116.18239321 -.00000234  00000+0  00000+0 0  9992","line2":"2 27380   6.7931  69.7962 0007709 338.5906 199.9658  1.00269835 51247","category":"Other"},{"name":"TYVAK-0129","line1":"1 44853U 19089B   24268.55600073  .13853753  37346-5  17063-2 0  9991","line2":"2 44853  36.9359  64.2361 0007440 313.4482  46.5684 16.35014491264440","category":"Other"},{"name":"STARLINK-5681","line1":"1 55469U 23015W   26116.22436951  .00011972  00000+0  45546-3 0  9994","line2":"2 55469  43.0024  60.1113 0000733 105.5766 254.5166 15.26726398177990","category":"Starlink"},{"name":"GEESAT-3 08","line1":"1 61018U 24159H   26116.60914802  .00002464  00000+0  31807-3 0  9990","line2":"2 61018  50.0055 322.2627 0027839 255.2466 104.5387 14.84039519 89117","category":"Other"},{"name":"STARLINK-30766","line1":"1 58125U 23162H   26116.54749739  .00000352  00000+0  22357-4 0  9991","line2":"2 58125  43.0066 219.0414 0002785 264.5611  95.4923 15.27576871139666","category":"Starlink"},{"name":"STARLINK-36197","line1":"1 67205U 25304P   26116.52522721  .00011413  00000+0  96215-3 0  9991","line2":"2 67205  70.0026  53.6988 0002885 272.4295  87.6534 14.98354454 21025","category":"Starlink"},{"name":"FENGYUN 1C DEB","line1":"1 30750U 99025ATL 26102.69273551  .00002380  00000+0  93643-3 0  9999","line2":"2 30750  98.9081 184.9643 0041222 108.1470  45.1851 14.29731278985098","category":"Weather"},{"name":"COSMOS 2251 DEB","line1":"1 47060U 93036BXQ 23178.36818090  .00027386  00000+0  19280-2 0  9991","line2":"2 47060  73.7035  33.5924 0087080 181.4571 351.9545 15.01859078613264","category":"Other"},{"name":"STARLINK-5733","line1":"1 56925U 23083BB  26116.45833012  .00000762  00000+0  38095-4 0  9998","line2":"2 56925  43.0022 160.9096 0001583 262.7610  97.3062 15.26741490159104","category":"Starlink"},{"name":"STARLINK-11512 [DTC]","line1":"1 62517U 25004G   26116.44471076  .00227495  00000+0  17263-2 0  9990","line2":"2 62517  43.0016 142.4765 0001077 303.0913  56.9852 15.70868509 74724","category":"Starlink"},{"name":"STARLINK-31522","line1":"1 59204U 24046D   26116.48514050  .00000261  00000+0  20948-4 0  9994","line2":"2 59204  53.1596 293.5930 0001200  89.8104 270.3034 15.30190556120361","category":"Starlink"},{"name":"COSMOS 2251 DEB","line1":"1 37973U 93036BPY 23179.31995654  .00001904  00000+0  65991-3 0  9990","line2":"2 37973  74.0344 160.9117 0038803  98.1907 262.3649 14.35890509705530","category":"Other"},{"name":"STARLINK-35030","line1":"1 65448U 25194Q   26116.58557311  .00014573  00000+0  10119-2 0  9992","line2":"2 65448  97.5696 331.5639 0002781 103.6676 256.4861 15.05654880 36854","category":"Starlink"},{"name":"STARLINK-37162","line1":"1 68262U 26055A   26116.58335648 -.02487888  00000+0 -43558-1 0  9992","line2":"2 68262  53.1594  97.8446 0001303  83.0512 112.7314 15.53362614  6020","category":"Starlink"},{"name":"STARLINK-11651 [DTC]","line1":"1 63664U 25085A   26116.61773080  .00289344  00000+0  21746-2 0  9994","line2":"2 63664  43.0004 349.1683 0001647 250.9336 109.1353 15.70907779 57790","category":"Starlink"},{"name":"STARLINK-32270","line1":"1 60364U 24138K   26116.61515123  .00010233  00000+0  35708-3 0  9991","line2":"2 60364  53.1590  87.1060 0001369 105.0361 255.0791 15.30206176 97861","category":"Starlink"},{"name":"STARLINK-34766","line1":"1 66505U 25263W   26116.35817619  .00025822  00000+0  94345-3 0  9992","line2":"2 66505  43.0027  81.1028 0001326 263.5666  96.5035 15.27619499 26195","category":"Starlink"},{"name":"FENGYUN 1C DEB","line1":"1 31733U 99025CEG 23178.51582718  .00027324  00000+0  18470-2 0  9999","line2":"2 31733  99.1063 200.9097 0077236 190.9664 168.9877 15.04084873860857","category":"Weather"},{"name":"ONEWEB-0177","line1":"1 48074U 21025AJ  26116.60177638  .00000020  00000+0  19466-4 0  9998","line2":"2 48074  87.8971 330.4967 0001499  83.7769 276.3531 13.13470356246901","category":"Other"},{"name":"UNKNOWN","line1":"1 88229U          23202.04406091  .00005379  00000+0  40052-3 0  9999","line2":"2 88229  97.6609 252.5204 0019712 167.2218 192.9511 15.03194921  3528","category":"Other"},{"name":"EKRAN 2","line1":"1 10365U 77092A   26105.03404265 -.00000297  00000+0  00000+0 0  9995","line2":"2 10365   4.3982 275.5332 0038577  19.9096  18.8495  1.00261310134225","category":"Other"},{"name":"FENGYUN 1C DEB","line1":"1 40999U 99025EXD 23175.89378485  .00000895  00000+0  61012-3 0  9990","line2":"2 40999  99.2194 222.9374 0057269 225.7986 133.8466 14.01825707689137","category":"Weather"},{"name":"STARLINK-4642","line1":"1 53720U 22107W   26116.49260724  .00000571  00000+0  53942-4 0  9998","line2":"2 53720  53.2187  39.2805 0001624  87.0640 273.0538 15.08842522201637","category":"Starlink"},{"name":"STARLINK-11291 [DTC]","line1":"1 61208U 24171J   26115.74979554  .00000357  00000+0  77939-5 0  9991","line2":"2 61208  53.1593 304.0038 0000447  69.6455 290.4611 15.69710465 91796","category":"Starlink"},{"name":"STARLINK-30796","line1":"1 58189U 23167Q   26116.58529956 -.00002422  00000+0 -78550-4 0  9995","line2":"2 58189  43.0021 232.6016 0001495 253.2299 106.8388 15.27563200138315","category":"Starlink"},{"name":"COSMOS 2251 DEB","line1":"1 34908U 93036ADD 26104.92612211  .00000771  00000+0  26176-3 0  9991","line2":"2 34908  74.0568 157.1983 0039634 147.7565  29.5588 14.37886606890496","category":"Other"},{"name":"STARLINK-3321","line1":"1 50803U 22001A   23361.75897517  .00000224  00000+0  32187-4 0  9997","line2":"2 50803  53.2156 173.6176 0001254  91.3503 268.7632 15.08842825109191","category":"Starlink"},{"name":"STARLINK-34457","line1":"1 64368U 25126AA  26116.51943549  .00003803  00000+0  32629-3 0  9997","line2":"2 64368  70.0000 273.9618 0002953 266.6124  93.4697 14.98338698 47848","category":"Starlink"},{"name":"THURAYA-2","line1":"1 27825U 03026A   26116.43139843  .00000115  00000+0  00000+0 0  9991","line2":"2 27825   8.7627  32.1860 0003496 343.5831  37.9728  1.00273006 83832","category":"Other"},{"name":"STARLINK-1117","line1":"1 44952U 20001AQ  23362.20776698  .00029177  00000+0  19669-2 0  9996","line2":"2 44952  53.0557 329.1002 0001586 113.0976 247.0180 15.06450173219179","category":"Starlink"},{"name":"STARLINK-5750","line1":"1 55594U 23020AB  26116.27687967  .00000928  00000+0  43246-4 0  9994","line2":"2 55594  43.0042  96.1970 0001634 271.2655  88.8010 15.27579521176190","category":"Starlink"},{"name":"SITRO-TD-3","line1":"1 67270U 25313Y   26116.47244031  .00011695  00000+0  50593-3 0  9993","line2":"2 67270  97.3958 191.9681 0015018 179.9551 180.1690 15.22495482 18086","category":"Other"},{"name":"FENGYUN 1C DEB","line1":"1 30863U 99025AWZ 26104.44902468  .00000843  00000+0  16966-2 0  9999","line2":"2 30863  99.1368 271.6244 0868642 351.6580  30.7521 12.40954673612622","category":"Weather"},{"name":"COSMOS 2548","line1":"1 47230U 20091D   26116.65134015  .00000116  00000+0  76663-3 0  9997","line2":"2 47230  82.5019 333.7123 0014453 309.3813  50.5986 12.42928905244655","category":"Other"},{"name":"2023-084BR","line1":"1 56989U 23084BR  23192.71807406  .00016121  00000+0  92247-3 0  9991","line2":"2 56989  97.5066 308.8442 0018413 131.0982 229.1842 15.12583512  4366","category":"Other"},{"name":"STARLINK-32778","line1":"1 62603U 25008S   26116.38788117  .00022874  00000+0  83749-3 0  9997","line2":"2 62603  43.0034   9.0309 0000903 269.4295  90.6453 15.27606733 72852","category":"Starlink"},{"name":"STARLINK-31609","line1":"1 59269U 24050R   26116.28608486 -.00000159  00000+0  67443-5 0  9994","line2":"2 59269  53.1619 320.0606 0001111 105.6359 254.4764 15.30186121117838","category":"Starlink"},{"name":"FENGYUN 1C DEB","line1":"1 38135U 99025EQG 26102.43046364  .00000925  00000+0  31613-3 0  9998","line2":"2 38135  98.6372 162.6802 0222555  79.6284 282.9898 14.25670106627608","category":"Weather"},{"name":"STARLINK-4187","line1":"1 52850U 22062W   26116.44395713 -.00000321  00000+0 -21034-5 0  9996","line2":"2 52850  53.2162 180.1011 0000917  83.3700 276.7396 15.08841328212994","category":"Starlink"},{"name":"STARLINK-35149","line1":"1 65512U 25198W   26116.23201783  .00040016  00000+0  13561-2 0  9994","line2":"2 65512  53.1589  49.8357 0001181  78.1675 281.9459 15.30196422 35901","category":"Starlink"},{"name":"STARLINK-37206","line1":"1 68326U 26059F   26116.58335648 -.00762170  00000+0 -27233-1 0  9997","line2":"2 68326  53.1588 125.5537 0001530 118.7277 178.7689 15.30708667  6079","category":"Starlink"},{"name":"KUIPER-00012","line1":"1 63728U 25088E   26116.59446755  .00002360  00000+0  33835-3 0  9995","line2":"2 63728  51.9015 223.7515 0000390  91.5080 268.5927 14.79941445 55017","category":"Other"},{"name":"STARLINK-32193","line1":"1 60428U 24144D   26116.35463492  .00000467  00000+0  27882-4 0  9994","line2":"2 60428  53.1616 355.9653 0001104  83.9395 276.1731 15.30197339 96646","category":"Starlink"}]}